[{"OBJECT_NAME":"UMBRA-11","OBJECT_ID":"2025-276CL","EPOCH":"2026-03-09T18:06:23.760288","MEAN_MOTION":15.22304162,"ECCENTRICITY":0.00010845,"INCLINATION":97.4267,"RA_OF_ASC_NODE":144.2955,"ARG_OF_PERICENTER":341.4923,"MEAN_ANOMALY":18.6273,"EPHEMERIS_TYPE":0,"CLASSIFICATION_TYPE":"U","NORAD_CAT_ID":66748,"ELEMENT_SET_NO":999,"REV_AT_EPOCH":1534,"BSTAR":0.0010529412,"MEAN_MOTION_DOT":0.00024246,"MEAN_MOTION_DDOT":0},{"OBJECT_NAME":"ZORKY-2M 7","OBJECT_ID":"2025-313W","EPOCH":"2026-03-09T22:43:05.743200","MEAN_MOTION":15.21225131,"ECCENTRICITY":0.00148584,"INCLINATION":97.4012,"RA_OF_ASC_NODE":145.1843,"ARG_OF_PERICENTER":357.9354,"MEAN_ANOMALY":2.1818,"EPHEMERIS_TYPE":0,"CLASSIFICATION_TYPE":"U","NORAD_CAT_ID":67268,"ELEMENT_SET_NO":999,"REV_AT_EPOCH":1085,"BSTAR":0.00041986274,"MEAN_MOTION_DOT":9.334e-5,"MEAN_MOTION_DDOT":0}]
